SL-14 R/B               
1 21423U 91042B   26056.94067502  .00000429  00000+0  51362-4 0  9995
2 21423  82.4903 231.2011 0015559 280.7633  79.1829 14.81815389851338
ERS-1                   
1 21574U 91050A   26057.01944208  .00000299  00000+0  11037-3 0  9996
2 21574  98.7889  74.9606 0031075 235.7622 124.0620 14.39438655814056
ARIANE 40 R/B           
1 21610U 91050F   26057.16749947  .00000263  00000+0  91367-4 0  9992
2 21610  98.2038 109.8351 0004363 106.1141 254.0530 14.42883826817336
INTERCOSMOS 25          
1 21819U 91086A   26057.18223602  .00001490  00000+0  28603-3 0  9994
2 21819  82.6070 316.9625 1487090 141.7227 229.9492 12.11961844495294
SL-8 R/B                
1 21876U 92008B   26057.17237323  .00000012  00000+0 -32455-5 0  9998
2 21876  82.9233 276.3478 0034948 164.8552 318.5069 13.75969918707834
SL-8 R/B                
1 21938U 92020B   26057.26563193  .00000073  00000+0  60008-4 0  9998
2 21938  82.9344 162.2409 0028163 331.9189  56.9104 13.75548006699562
USA 81                  
1 21949U 92023A   26057.27197934  .00000168  00000+0  54893-4 0  9990
2 21949  85.0106 138.0264 0002731  87.5073 272.6432 14.32363563 93154
COSMOS 2219             
1 22219U 92076A   26057.27363011  .00000360  00000+0  21376-3 0  9993
2 22219  71.0602  41.9319 0019524 222.2486 137.7133 14.14084791716769
SL-16 R/B               
1 22220U 92076B   26056.92789552  .00000295  00000+0  17101-3 0  9996
2 22220  70.9988 213.1479 0010876 117.9856  52.6533 14.16857109720169
COSMOS 2221             
1 22236U 92080A   26057.13418654  .00001604  00000+0  14006-3 0  9990
2 22236  82.5027 290.1508 0013073 228.1547 131.8560 14.96149376779062
SL-16 R/B               
1 22285U 92093B   26057.29094642  .00000082  00000+0  66170-4 0  9991
2 22285  71.0229  28.1932 0006034 305.9278  54.1284 14.15449441711543
COSMOS 2228             
1 22286U 92094A   26057.22498932  .00001970  00000+0  16797-3 0  9992
2 22286  82.5147 248.2896 0017572 345.1335  14.9368 14.97125966774340
