CCSDS_OMM_VERS = 2.0
CREATION_DATE  = 
ORIGINATOR     = 

OBJECT_NAME    = SL-14 R/B
OBJECT_ID      = 1991-042B
CENTER_NAME    = EARTH
REF_FRAME      = TEME
TIME_SYSTEM    = UTC
MEAN_ELEMENT_THEORY = SGP/SGP4

EPOCH          = 2026-02-25T22:34:34.321728
MEAN_MOTION    = 14.81815389
ECCENTRICITY   = .00155597
INCLINATION    = 82.4903
RA_OF_ASC_NODE = 231.2011
ARG_OF_PERICENTER = 280.7633
MEAN_ANOMALY   = 79.1829

EPHEMERIS_TYPE = 0
CLASSIFICATION_TYPE = U
NORAD_CAT_ID   = 21423
ELEMENT_SET_NO = 999
REV_AT_EPOCH   = 85133
BSTAR          = .51362128E-4
MEAN_MOTION_DOT = .429E-5
MEAN_MOTION_DDOT = 0

CCSDS_OMM_VERS = 2.0
CREATION_DATE  = 
ORIGINATOR     = 

OBJECT_NAME    = ERS-1
OBJECT_ID      = 1991-050A
CENTER_NAME    = EARTH
REF_FRAME      = TEME
TIME_SYSTEM    = UTC
MEAN_ELEMENT_THEORY = SGP/SGP4

EPOCH          = 2026-02-26T00:27:59.795712
MEAN_MOTION    = 14.39438655
ECCENTRICITY   = .0031075
INCLINATION    = 98.7889
RA_OF_ASC_NODE = 74.9606
ARG_OF_PERICENTER = 235.7622
MEAN_ANOMALY   = 124.0620

EPHEMERIS_TYPE = 0
CLASSIFICATION_TYPE = U
NORAD_CAT_ID   = 21574
ELEMENT_SET_NO = 999
REV_AT_EPOCH   = 81405
BSTAR          = .11037E-3
MEAN_MOTION_DOT = .299E-5
MEAN_MOTION_DDOT = 0

CCSDS_OMM_VERS = 2.0
CREATION_DATE  = 
ORIGINATOR     = 

OBJECT_NAME    = ARIANE 40 R/B
OBJECT_ID      = 1991-050F
CENTER_NAME    = EARTH
REF_FRAME      = TEME
TIME_SYSTEM    = UTC
MEAN_ELEMENT_THEORY = SGP/SGP4

EPOCH          = 2026-02-26T04:01:11.954208
MEAN_MOTION    = 14.42883826
ECCENTRICITY   = .00043633
INCLINATION    = 98.2038
RA_OF_ASC_NODE = 109.8351
ARG_OF_PERICENTER = 106.1141
MEAN_ANOMALY   = 254.0530

EPHEMERIS_TYPE = 0
CLASSIFICATION_TYPE = U
NORAD_CAT_ID   = 21610
ELEMENT_SET_NO = 999
REV_AT_EPOCH   = 81733
BSTAR          = .91367429E-4
MEAN_MOTION_DOT = .263E-5
MEAN_MOTION_DDOT = 0

CCSDS_OMM_VERS = 2.0
CREATION_DATE  = 
ORIGINATOR     = 

OBJECT_NAME    = INTERCOSMOS 25
OBJECT_ID      = 1991-086A
CENTER_NAME    = EARTH
REF_FRAME      = TEME
TIME_SYSTEM    = UTC
MEAN_ELEMENT_THEORY = SGP/SGP4

EPOCH          = 2026-02-26T04:22:25.192128
MEAN_MOTION    = 12.11961844
ECCENTRICITY   = .14870904
INCLINATION    = 82.6070
RA_OF_ASC_NODE = 316.9625
ARG_OF_PERICENTER = 141.7227
MEAN_ANOMALY   = 229.9492

EPHEMERIS_TYPE = 0
CLASSIFICATION_TYPE = U
NORAD_CAT_ID   = 21819
ELEMENT_SET_NO = 999
REV_AT_EPOCH   = 49529
BSTAR          = .28602642E-3
MEAN_MOTION_DOT = .149E-4
MEAN_MOTION_DDOT = 0

CCSDS_OMM_VERS = 2.0
CREATION_DATE  = 
ORIGINATOR     = 

OBJECT_NAME    = SL-8 R/B
OBJECT_ID      = 1992-008B
CENTER_NAME    = EARTH
REF_FRAME      = TEME
TIME_SYSTEM    = UTC
MEAN_ELEMENT_THEORY = SGP/SGP4

EPOCH          = 2026-02-26T04:08:13.047072
MEAN_MOTION    = 13.75969918
ECCENTRICITY   = .00349488
INCLINATION    = 82.9233
RA_OF_ASC_NODE = 276.3478
ARG_OF_PERICENTER = 164.8552
MEAN_ANOMALY   = 318.5069

EPHEMERIS_TYPE = 0
CLASSIFICATION_TYPE = U
NORAD_CAT_ID   = 21876
ELEMENT_SET_NO = 999
REV_AT_EPOCH   = 70783
BSTAR          = -.3245496E-5
MEAN_MOTION_DOT = .12E-6
MEAN_MOTION_DDOT = 0

CCSDS_OMM_VERS = 2.0
CREATION_DATE  = 
ORIGINATOR     = 

OBJECT_NAME    = SL-8 R/B
OBJECT_ID      = 1992-020B
CENTER_NAME    = EARTH
REF_FRAME      = TEME
TIME_SYSTEM    = UTC
MEAN_ELEMENT_THEORY = SGP/SGP4

EPOCH          = 2026-02-26T06:22:30.598752
MEAN_MOTION    = 13.75548006
ECCENTRICITY   = .00281639
INCLINATION    = 82.9344
RA_OF_ASC_NODE = 162.2409
ARG_OF_PERICENTER = 331.9189
MEAN_ANOMALY   = 56.9104

EPHEMERIS_TYPE = 0
CLASSIFICATION_TYPE = U
NORAD_CAT_ID   = 21938
ELEMENT_SET_NO = 999
REV_AT_EPOCH   = 69956
BSTAR          = .60007806E-4
MEAN_MOTION_DOT = .73E-6
MEAN_MOTION_DDOT = 0

CCSDS_OMM_VERS = 2.0
CREATION_DATE  = 
ORIGINATOR     = 

OBJECT_NAME    = USA 81
OBJECT_ID      = 1992-023A
CENTER_NAME    = EARTH
REF_FRAME      = TEME
TIME_SYSTEM    = UTC
MEAN_ELEMENT_THEORY = SGP/SGP4

EPOCH          = 2026-02-26T06:31:39.014976
MEAN_MOTION    = 14.32363563
ECCENTRICITY   = .0002731
INCLINATION    = 85.0106
RA_OF_ASC_NODE = 138.0264
ARG_OF_PERICENTER = 87.5073
MEAN_ANOMALY   = 272.6432

EPHEMERIS_TYPE = 0
CLASSIFICATION_TYPE = U
NORAD_CAT_ID   = 21949
ELEMENT_SET_NO = 999
REV_AT_EPOCH   = 9315
BSTAR          = .54893254E-4
MEAN_MOTION_DOT = .168E-5
MEAN_MOTION_DDOT = 0

CCSDS_OMM_VERS = 2.0
CREATION_DATE  = 
ORIGINATOR     = 

OBJECT_NAME    = COSMOS 2219
OBJECT_ID      = 1992-076A
CENTER_NAME    = EARTH
REF_FRAME      = TEME
TIME_SYSTEM    = UTC
MEAN_ELEMENT_THEORY = SGP/SGP4

EPOCH          = 2026-02-26T06:34:01.641504
MEAN_MOTION    = 14.14084791
ECCENTRICITY   = .00195243
INCLINATION    = 71.0602
RA_OF_ASC_NODE = 41.9319
ARG_OF_PERICENTER = 222.2486
MEAN_ANOMALY   = 137.7133

EPHEMERIS_TYPE = 0
CLASSIFICATION_TYPE = U
NORAD_CAT_ID   = 22219
ELEMENT_SET_NO = 999
REV_AT_EPOCH   = 71676
BSTAR          = .21376309E-3
MEAN_MOTION_DOT = .36E-5
MEAN_MOTION_DDOT = 0

CCSDS_OMM_VERS = 2.0
CREATION_DATE  = 
ORIGINATOR     = 

OBJECT_NAME    = SL-16 R/B
OBJECT_ID      = 1992-076B
CENTER_NAME    = EARTH
REF_FRAME      = TEME
TIME_SYSTEM    = UTC
MEAN_ELEMENT_THEORY = SGP/SGP4

EPOCH          = 2026-02-25T22:16:10.172928
MEAN_MOTION    = 14.16857109
ECCENTRICITY   = .00108764
INCLINATION    = 70.9988
RA_OF_ASC_NODE = 213.1479
ARG_OF_PERICENTER = 117.9856
MEAN_ANOMALY   = 52.6533

EPHEMERIS_TYPE = 0
CLASSIFICATION_TYPE = U
NORAD_CAT_ID   = 22220
ELEMENT_SET_NO = 999
REV_AT_EPOCH   = 72016
BSTAR          = .17101435E-3
MEAN_MOTION_DOT = .295E-5
MEAN_MOTION_DDOT = 0

CCSDS_OMM_VERS = 2.0
CREATION_DATE  = 
ORIGINATOR     = 

OBJECT_NAME    = COSMOS 2221
OBJECT_ID      = 1992-080A
CENTER_NAME    = EARTH
REF_FRAME      = TEME
TIME_SYSTEM    = UTC
MEAN_ELEMENT_THEORY = SGP/SGP4

EPOCH          = 2026-02-26T03:13:13.717056
MEAN_MOTION    = 14.96149376
ECCENTRICITY   = .00130738
INCLINATION    = 82.5027
RA_OF_ASC_NODE = 290.1508
ARG_OF_PERICENTER = 228.1547
MEAN_ANOMALY   = 131.8560

EPHEMERIS_TYPE = 0
CLASSIFICATION_TYPE = U
NORAD_CAT_ID   = 22236
ELEMENT_SET_NO = 999
REV_AT_EPOCH   = 77906
BSTAR          = .14005794E-3
MEAN_MOTION_DOT = .1604E-4
MEAN_MOTION_DDOT = 0

CCSDS_OMM_VERS = 2.0
CREATION_DATE  = 
ORIGINATOR     = 

OBJECT_NAME    = SL-16 R/B
OBJECT_ID      = 1992-093B
CENTER_NAME    = EARTH
REF_FRAME      = TEME
TIME_SYSTEM    = UTC
MEAN_ELEMENT_THEORY = SGP/SGP4

EPOCH          = 2026-02-26T06:58:57.770688
MEAN_MOTION    = 14.15449441
ECCENTRICITY   = .00060348
INCLINATION    = 71.0229
RA_OF_ASC_NODE = 28.1932
ARG_OF_PERICENTER = 305.9278
MEAN_ANOMALY   = 54.1284

EPHEMERIS_TYPE = 0
CLASSIFICATION_TYPE = U
NORAD_CAT_ID   = 22285
ELEMENT_SET_NO = 999
REV_AT_EPOCH   = 71154
BSTAR          = .66170492E-4
MEAN_MOTION_DOT = .82E-6
MEAN_MOTION_DDOT = 0

CCSDS_OMM_VERS = 2.0
CREATION_DATE  = 
ORIGINATOR     = 

OBJECT_NAME    = COSMOS 2228
OBJECT_ID      = 1992-094A
CENTER_NAME    = EARTH
REF_FRAME      = TEME
TIME_SYSTEM    = UTC
MEAN_ELEMENT_THEORY = SGP/SGP4

EPOCH          = 2026-02-26T05:23:59.077248
MEAN_MOTION    = 14.97125966
ECCENTRICITY   = .00175722
INCLINATION    = 82.5147
RA_OF_ASC_NODE = 248.2896
ARG_OF_PERICENTER = 345.1335
MEAN_ANOMALY   = 14.9368

EPHEMERIS_TYPE = 0
CLASSIFICATION_TYPE = U
NORAD_CAT_ID   = 22286
ELEMENT_SET_NO = 999
REV_AT_EPOCH   = 77434
BSTAR          = .16797257E-3
MEAN_MOTION_DOT = .197E-4
MEAN_MOTION_DDOT = 0

